[{"OBJECT_NAME":"KUIPER-00085","OBJECT_ID":"2025-151R","EPOCH":"2026-03-05T16:30:40.810176","MEAN_MOTION":14.79929423,"ECCENTRICITY":8.8e-5,"INCLINATION":51.9013,"RA_OF_ASC_NODE":305.8189,"ARG_OF_PERICENTER":114.65,"MEAN_ANOMALY":245.4554,"EPHEMERIS_TYPE":0,"CLASSIFICATION_TYPE":"U","NORAD_CAT_ID":64831,"ELEMENT_SET_NO":999,"REV_AT_EPOCH":3488,"BSTAR":-0.00023436,"MEAN_MOTION_DOT":-2.007e-5,"MEAN_MOTION_DDOT":0},{"OBJECT_NAME":"KUIPER-00086","OBJECT_ID":"2025-151S","EPOCH":"2026-03-05T16:15:08.430624","MEAN_MOTION":14.79921244,"ECCENTRICITY":0.000135,"INCLINATION":51.9018,"RA_OF_ASC_NODE":315.8425,"ARG_OF_PERICENTER":96.0088,"MEAN_ANOMALY":264.1028,"EPHEMERIS_TYPE":0,"CLASSIFICATION_TYPE":"U","NORAD_CAT_ID":64832,"ELEMENT_SET_NO":999,"REV_AT_EPOCH":3474,"BSTAR":-0.00015983,"MEAN_MOTION_DOT":-1.439e-5,"MEAN_MOTION_DDOT":0},{"OBJECT_NAME":"KUIPER-00087","OBJECT_ID":"2025-151T","EPOCH":"2026-03-05T08:00:01.999008","MEAN_MOTION":14.80017017,"ECCENTRICITY":8.0e-5,"INCLINATION":51.8988,"RA_OF_ASC_NODE":299.8452,"ARG_OF_PERICENTER":170.013,"MEAN_ANOMALY":56.4172,"EPHEMERIS_TYPE":0,"CLASSIFICATION_TYPE":"U","NORAD_CAT_ID":64833,"ELEMENT_SET_NO":999,"REV_AT_EPOCH":550,"BSTAR":-0.006454,"MEAN_MOTION_DOT":-0.00049162,"MEAN_MOTION_DDOT":0},{"OBJECT_NAME":"KUIPER-00089","OBJECT_ID":"2025-151U","EPOCH":"2026-03-05T16:32:40.157088","MEAN_MOTION":14.79780114,"ECCENTRICITY":0.0001253,"INCLINATION":51.8973,"RA_OF_ASC_NODE":303.2649,"ARG_OF_PERICENTER":94.3828,"MEAN_ANOMALY":265.7277,"EPHEMERIS_TYPE":0,"CLASSIFICATION_TYPE":"U","NORAD_CAT_ID":64834,"ELEMENT_SET_NO":999,"REV_AT_EPOCH":3492,"BSTAR":-5.4365e-5,"MEAN_MOTION_DOT":-6.34e-6,"MEAN_MOTION_DDOT":0},{"OBJECT_NAME":"KUIPER-00090","OBJECT_ID":"2025-151V","EPOCH":"2026-03-05T15:08:58.404192","MEAN_MOTION":14.79924281,"ECCENTRICITY":8.37e-5,"INCLINATION":51.8958,"RA_OF_ASC_NODE":296.0696,"ARG_OF_PERICENTER":104.9584,"MEAN_ANOMALY":255.1471,"EPHEMERIS_TYPE":0,"CLASSIFICATION_TYPE":"U","NORAD_CAT_ID":64835,"ELEMENT_SET_NO":999,"REV_AT_EPOCH":3501,"BSTAR":3.2375e-5,"MEAN_MOTION_DOT":2.6e-7,"MEAN_MOTION_DDOT":0},{"OBJECT_NAME":"KUIPER-00091","OBJECT_ID":"2025-151W","EPOCH":"2026-03-05T02:04:06.742560","MEAN_MOTION":14.79823527,"ECCENTRICITY":9.97e-5,"INCLINATION":51.9004,"RA_OF_ASC_NODE":303.4611,"ARG_OF_PERICENTER":107.5983,"MEAN_ANOMALY":252.5088,"EPHEMERIS_TYPE":0,"CLASSIFICATION_TYPE":"U","NORAD_CAT_ID":64836,"ELEMENT_SET_NO":999,"REV_AT_EPOCH":3486,"BSTAR":0.00073846842,"MEAN_MOTION_DOT":5.398e-5,"MEAN_MOTION_DDOT":0},{"OBJECT_NAME":"KUIPER-00092","OBJECT_ID":"2025-151X","EPOCH":"2026-03-05T18:03:58.743072","MEAN_MOTION":14.79934851,"ECCENTRICITY":0.0001125,"INCLINATION":51.9004,"RA_OF_ASC_NODE":308.0051,"ARG_OF_PERICENTER":110.6815,"MEAN_ANOMALY":249.4268,"EPHEMERIS_TYPE":0,"CLASSIFICATION_TYPE":"U","NORAD_CAT_ID":64837,"ELEMENT_SET_NO":999,"REV_AT_EPOCH":3607,"BSTAR":-0.00024622,"MEAN_MOTION_DOT":-2.098e-5,"MEAN_MOTION_DDOT":0},{"OBJECT_NAME":"KUIPER-00093","OBJECT_ID":"2025-151Y","EPOCH":"2026-03-05T09:53:36.594240","MEAN_MOTION":14.80026,"ECCENTRICITY":9.07e-5,"INCLINATION":51.9003,"RA_OF_ASC_NODE":311.9911,"ARG_OF_PERICENTER":95.2223,"MEAN_ANOMALY":264.8843,"EPHEMERIS_TYPE":0,"CLASSIFICATION_TYPE":"U","NORAD_CAT_ID":64838,"ELEMENT_SET_NO":999,"REV_AT_EPOCH":3477,"BSTAR":0.00082737,"MEAN_MOTION_DOT":6.106e-5,"MEAN_MOTION_DDOT":0},{"OBJECT_NAME":"KUIPER-00094","OBJECT_ID":"2025-151Z","EPOCH":"2026-03-05T07:51:22.593312","MEAN_MOTION":15.04241205,"ECCENTRICITY":0.0005424,"INCLINATION":51.8884,"RA_OF_ASC_NODE":282.4125,"ARG_OF_PERICENTER":272.5356,"MEAN_ANOMALY":87.4996,"EPHEMERIS_TYPE":0,"CLASSIFICATION_TYPE":"U","NORAD_CAT_ID":64839,"ELEMENT_SET_NO":999,"REV_AT_EPOCH":3518,"BSTAR":0.00069539,"MEAN_MOTION_DOT":9.519e-5,"MEAN_MOTION_DDOT":0},{"OBJECT_NAME":"KUIPER-00081","OBJECT_ID":"2025-171A","EPOCH":"2026-03-05T19:19:27.406848","MEAN_MOTION":14.79857478,"ECCENTRICITY":4.04e-5,"INCLINATION":51.9007,"RA_OF_ASC_NODE":165.2503,"ARG_OF_PERICENTER":68.6133,"MEAN_ANOMALY":291.4872,"EPHEMERIS_TYPE":0,"CLASSIFICATION_TYPE":"U","NORAD_CAT_ID":65132,"ELEMENT_SET_NO":999,"REV_AT_EPOCH":3246,"BSTAR":-5.5363e-6,"MEAN_MOTION_DOT":-2.63e-6,"MEAN_MOTION_DDOT":0},{"OBJECT_NAME":"KUIPER-00088","OBJECT_ID":"2025-171B","EPOCH":"2026-03-05T20:00:00.999360","MEAN_MOTION":14.76604221,"ECCENTRICITY":0.000118,"INCLINATION":51.8991,"RA_OF_ASC_NODE":182.5639,"ARG_OF_PERICENTER":49.502,"MEAN_ANOMALY":237.6023,"EPHEMERIS_TYPE":0,"CLASSIFICATION_TYPE":"U","NORAD_CAT_ID":65133,"ELEMENT_SET_NO":999,"REV_AT_EPOCH":557,"BSTAR":0.0083917,"MEAN_MOTION_DOT":0.00059447,"MEAN_MOTION_DDOT":0},{"OBJECT_NAME":"KUIPER-00095","OBJECT_ID":"2025-171C","EPOCH":"2026-03-05T20:00:00.999360","MEAN_MOTION":14.82095227,"ECCENTRICITY":0.0001174,"INCLINATION":51.8962,"RA_OF_ASC_NODE":162.8213,"ARG_OF_PERICENTER":135.3953,"MEAN_ANOMALY":299.5933,"EPHEMERIS_TYPE":0,"CLASSIFICATION_TYPE":"U","NORAD_CAT_ID":65134,"ELEMENT_SET_NO":999,"REV_AT_EPOCH":557,"BSTAR":-0.00065099,"MEAN_MOTION_DOT":-5.447e-5,"MEAN_MOTION_DDOT":0},{"OBJECT_NAME":"KUIPER-00096","OBJECT_ID":"2025-171D","EPOCH":"2026-03-05T13:23:36.366720","MEAN_MOTION":14.79933095,"ECCENTRICITY":3.01e-5,"INCLINATION":51.8984,"RA_OF_ASC_NODE":176.3521,"ARG_OF_PERICENTER":123.0177,"MEAN_ANOMALY":237.0815,"EPHEMERIS_TYPE":0,"CLASSIFICATION_TYPE":"U","NORAD_CAT_ID":65135,"ELEMENT_SET_NO":999,"REV_AT_EPOCH":3228,"BSTAR":0.00026109,"MEAN_MOTION_DOT":1.77e-5,"MEAN_MOTION_DDOT":0},{"OBJECT_NAME":"KUIPER-00097","OBJECT_ID":"2025-171E","EPOCH":"2026-03-05T14:56:59.087040","MEAN_MOTION":14.79922048,"ECCENTRICITY":3.92e-5,"INCLINATION":51.9017,"RA_OF_ASC_NODE":178.6942,"ARG_OF_PERICENTER":96.2614,"MEAN_ANOMALY":263.8393,"EPHEMERIS_TYPE":0,"CLASSIFICATION_TYPE":"U","NORAD_CAT_ID":65136,"ELEMENT_SET_NO":999,"REV_AT_EPOCH":3224,"BSTAR":-2.3209e-5,"MEAN_MOTION_DOT":-3.98e-6,"MEAN_MOTION_DDOT":0},{"OBJECT_NAME":"KUIPER-00098","OBJECT_ID":"2025-171F","EPOCH":"2026-03-05T14:53:00.750048","MEAN_MOTION":14.79984351,"ECCENTRICITY":0.0001877,"INCLINATION":51.9011,"RA_OF_ASC_NODE":181.0832,"ARG_OF_PERICENTER":148.9196,"MEAN_ANOMALY":211.1877,"EPHEMERIS_TYPE":0,"CLASSIFICATION_TYPE":"U","NORAD_CAT_ID":65137,"ELEMENT_SET_NO":999,"REV_AT_EPOCH":3156,"BSTAR":0.00098446,"MEAN_MOTION_DOT":7.301e-5,"MEAN_MOTION_DDOT":0},{"OBJECT_NAME":"KUIPER-00099","OBJECT_ID":"2025-171G","EPOCH":"2026-03-05T17:35:43.723680","MEAN_MOTION":14.79881521,"ECCENTRICITY":5.43e-5,"INCLINATION":51.9018,"RA_OF_ASC_NODE":170.5764,"ARG_OF_PERICENTER":41.8087,"MEAN_ANOMALY":318.2917,"EPHEMERIS_TYPE":0,"CLASSIFICATION_TYPE":"U","NORAD_CAT_ID":65138,"ELEMENT_SET_NO":999,"REV_AT_EPOCH":3237,"BSTAR":0.0010011,"MEAN_MOTION_DOT":7.41e-5,"MEAN_MOTION_DDOT":0},{"OBJECT_NAME":"KUIPER-00100","OBJECT_ID":"2025-171H","EPOCH":"2026-03-05T16:49:44.336640","MEAN_MOTION":14.79933008,"ECCENTRICITY":7.31e-5,"INCLINATION":51.9032,"RA_OF_ASC_NODE":168.1901,"ARG_OF_PERICENTER":36.8113,"MEAN_ANOMALY":323.29,"EPHEMERIS_TYPE":0,"CLASSIFICATION_TYPE":"U","NORAD_CAT_ID":65139,"ELEMENT_SET_NO":999,"REV_AT_EPOCH":3240,"BSTAR":-4.9913e-6,"MEAN_MOTION_DOT":-2.59e-6,"MEAN_MOTION_DDOT":0}]
